[Satellite]
VERSION=1.1
NAME=LEMUR-2-MCCULLAGH
NICKNAME=LEMUR-2-MCCULLAGH
TLE1=1 43051U 17071Q   18021.17187388  .00005775  00000-0  16178-3 0  9994
TLE2=2 43051  51.6402  37.1367 0000637 223.4474 136.6460 15.38098883  6939
